    DateUTC: 2022-01-27 09:40:01
    SemiMajorAxis: 1.3252718229789
    Eccentricity: 0.2559361547103
    Inclination: 1.0754540962563
    LongitudeOfAscNode: 316.92704291385
    ArgumentOfPeriapsis: 177.71448596535
    MeanAnomaly: 219.1634545276
    TrueAnomaly: 204.49621719883
  - EpochJD: 2459727.2460566
    DateUTC: 2022-05-27 17:54:19
    SemiMajorAxis: 1.3251533703021
    Eccentricity: 0.25590748594175
    Inclination: 1.0752412302911
    LongitudeOfAscNode: 316.91627077456
    ArgumentOfPeriapsis: 177.75024003695
    MeanAnomaly: 296.87750240114
    TrueAnomaly: 267.6732496714
  - EpochJD: 2459847.5893136
    DateUTC: 2022-09-25 02:08:36
    SemiMajorAxis: 1.325159144983
    Eccentricity: 0.25591813200602
    Inclination: 1.0751194328986
    LongitudeOfAscNode: 316.91504677682
    ArgumentOfPeriapsis: 177.75679791107
    MeanAnomaly: 14.629225425253
    TrueAnomaly: 25.208817674113
  - EpochJD: 2459967.9325707
    DateUTC: 2023-01-23 10:22:54
    SemiMajorAxis: 1.3251467761452
    Eccentricity: 0.25594836337684
    Inclination: 1.0750582079676
    LongitudeOfAscNode: 316.90865042778
    ArgumentOfPeriapsis: 177.75695718579
    MeanAnomaly: 92.386279196517
    TrueAnomaly: 120.17892307366
  - EpochJD: 2460088.2758278
    DateUTC: 2023-05-23 18:37:11
    SemiMajorAxis: 1.3251231874127
    Eccentricity: 0.25595904220264
    Inclination: 1.0750724264611
    LongitudeOfAscNode: 316.90686891261
    ArgumentOfPeriapsis: 177.75356364035
    MeanAnomaly: 170.1489621946
    TrueAnomaly: 173.95535822599
  - EpochJD: 2460208.6190848
    DateUTC: 2023-09-21 02:51:28
    SemiMajorAxis: 1.3252204164871
    Eccentricity: 0.25589482807341
    Inclination: 1.0749316098384
    LongitudeOfAscNode: 316.90398634193
    ArgumentOfPeriapsis: 177.74299700954
    MeanAnomaly: 247.91983039224
    TrueAnomaly: 224.3421479181
  - EpochJD: 2460328.9623419
    DateUTC: 2024-01-19 11:05:46
    SemiMajorAxis: 1.3252281066077
    Eccentricity: 0.25582855403126
    Inclination: 1.0748492943486
    LongitudeOfAscNode: 316.88905848083
    ArgumentOfPeriapsis: 177.75109663274
    MeanAnomaly: 325.66778372367
    TrueAnomaly: 303.86904258761
  - EpochJD: 2460449.305599
    DateUTC: 2024-05-18 19:20:03
    SemiMajorAxis: 1.3252593855108
    Eccentricity: 0.25584382464713
    Inclination: 1.0748312453447
    LongitudeOfAscNode: 316.8865016398
    ArgumentOfPeriapsis: 177.75758096887
    MeanAnomaly: 43.411571333212
    TrueAnomaly: 68.693312921518
  - EpochJD: 2460569.6488561
    DateUTC: 2024-09-16 03:34:21
    SemiMajorAxis: 1.3253013794252
    Eccentricity: 0.25588251960442
    Inclination: 1.0748462821455
    LongitudeOfAscNode: 316.88303966945
    ArgumentOfPeriapsis: 177.76615987224
    MeanAnomaly: 121.1449078377
    TrueAnomaly: 142.19387748349
  - EpochJD: 2460689.9921131
    DateUTC: 2025-01-14 11:48:38
    SemiMajorAxis: 1.3252254436267
    Eccentricity: 0.25595364849445
    Inclination: 1.0749403338121
    LongitudeOfAscNode: 316.88172690902
    ArgumentOfPeriapsis: 177.7667392109
    MeanAnomaly: 198.88856498617
    TrueAnomaly: 191.62995316366
  - EpochJD: 2460810.3353702
    DateUTC: 2025-05-14 20:02:55
    SemiMajorAxis: 1.3252021592571
    Eccentricity: 0.25597410498236
    Inclination: 1.0749223482989
    LongitudeOfAscNode: 316.88048566627
    ArgumentOfPeriapsis: 177.77023389809
    MeanAnomaly: 276.63606838704
    TrueAnomaly: 247.67150131506
  - EpochJD: 2460930.6786273
    DateUTC: 2025-09-12 04:17:13
    SemiMajorAxis: 1.3252599263567
    Eccentricity: 0.25595989444861
    Inclination: 1.0749355157492
    LongitudeOfAscNode: 316.87882457151
    ArgumentOfPeriapsis: 177.7564316416
    MeanAnomaly: 354.39447140911
    TrueAnomaly: 350.23095563337
  - EpochJD: 2461051.0218843
    DateUTC: 2026-01-10 12:31:30
    SemiMajorAxis: 1.3252336861987
    Eccentricity: 0.25592563270805
    Inclination: 1.0748344361104
    LongitudeOfAscNode: 316.87461059871
    ArgumentOfPeriapsis: 177.76690442466
    MeanAnomaly: 72.138862050628
    TrueAnomaly: 101.69225557666
  - EpochJD: 2461171.3651414
    DateUTC: 2026-05-10 20:45:48
    SemiMajorAxis: 1.32528385749
    Eccentricity: 0.25593204900914
    Inclination: 1.0748483797478
    LongitudeOfAscNode: 316.87326066063
    ArgumentOfPeriapsis: 177.77893325907
    MeanAnomaly: 149.86907411687
    TrueAnomaly: 161.31100972125
  - EpochJD: 2461291.7083985
    DateUTC: 2026-09-08 05:00:05
    SemiMajorAxis: 1.3252803445967
    Eccentricity: 0.25593740798998
    Inclination: 1.0747866098328
    LongitudeOfAscNode: 316.87327431175
    ArgumentOfPeriapsis: 177.78546542967
    MeanAnomaly: 227.60198191901
    TrueAnomaly: 210.07207831032
  - EpochJD: 2461412.0516556
    DateUTC: 2027-01-06 13:14:23
    SemiMajorAxis: 1.3252344691504
    Eccentricity: 0.25596308652646
    Inclination: 1.0747661719576
    LongitudeOfAscNode: 316.87152091942
    ArgumentOfPeriapsis: 177.79415989142
    MeanAnomaly: 305.34235684209
    TrueAnomaly: 277.2388618833
  - EpochJD: 2461532.3949126
    DateUTC: 2027-05-06 21:28:40
    SemiMajorAxis: 1.3252518081283
    Eccentricity: 0.25597424677875
    Inclination: 1.0747325341583
    LongitudeOfAscNode: 316.87073979318
    ArgumentOfPeriapsis: 177.78693023131
    MeanAnomaly: 23.094069494861
    TrueAnomaly: 39.070304042423
  - EpochJD: 2461652.7381697
    DateUTC: 2027-09-04 05:42:57
    SemiMajorAxis: 1.3252316981807
    Eccentricity: 0.25596641565446
    Inclination: 1.074707496268
    LongitudeOfAscNode: 316.86927353163
    ArgumentOfPeriapsis: 177.78442164158
    MeanAnomaly: 100.84505537427
    TrueAnomaly: 127.07771856471
  - EpochJD: 2461773.0814268
    DateUTC: 2028-01-02 13:57:15
    SemiMajorAxis: 1.325266354434
    Eccentricity: 0.25593839633346
    Inclination: 1.0746400454013
    LongitudeOfAscNode: 316.87093312221
    ArgumentOfPeriapsis: 177.78652395927
    MeanAnomaly: 178.5876420704
    TrueAnomaly: 179.13441827779
  - EpochJD: 2461893.4246838
    DateUTC: 2028-05-01 22:11:32
    SemiMajorAxis: 1.3252673812429
    Eccentricity: 0.25590838058716
    Inclination: 1.0744796512504
    LongitudeOfAscNode: 316.86741304185
    ArgumentOfPeriapsis: 177.79652082919
    MeanAnomaly: 256.32010859988
    TrueAnomaly: 230.70385660848
  - EpochJD: 2462013.7679409
    DateUTC: 2028-08-30 06:25:50
    SemiMajorAxis: 1.3252436304485
    Eccentricity: 0.25587820060599
    Inclination: 1.0744527661081
    LongitudeOfAscNode: 316.86377535854
    ArgumentOfPeriapsis: 177.80225019166
    MeanAnomaly: 334.06022625496
    TrueAnomaly: 316.46099171807
  - EpochJD: 2462134.111198
    DateUTC: 2028-12-28 14:40:07
    SemiMajorAxis: 1.3252799234506
    Eccentricity: 0.25590316924722
    Inclination: 1.0743455233665
    LongitudeOfAscNode: 316.8579736817
    ArgumentOfPeriapsis: 177.80663004623
    MeanAnomaly: 51.805427167057
    TrueAnomaly: 79.340257848367
  - EpochJD: 2462254.4544551
    DateUTC: 2029-04-27 22:54:24
    SemiMajorAxis: 1.3252181897803
    Eccentricity: 0.25592138663511
    Inclination: 1.0743827907929
    LongitudeOfAscNode: 316.85224148532
    ArgumentOfPeriapsis: 177.80134774166
    MeanAnomaly: 129.56234151608
    TrueAnomaly: 148.01384058627
  - EpochJD: 2462374.7977121
    DateUTC: 2029-08-26 07:08:42
    SemiMajorAxis: 1.3252570765826
    Eccentricity: 0.25588381020179
    Inclination: 1.0743068950772
    LongitudeOfAscNode: 316.85230641545
    ArgumentOfPeriapsis: 177.79801994537
    MeanAnomaly: 207.31549621196
    TrueAnomaly: 196.90773669421
  - EpochJD: 2462495.1409692
    DateUTC: 2029-12-24 15:22:59
    SemiMajorAxis: 1.3253124270968
    Eccentricity: 0.25584901826452
    Inclination: 1.0742421616545
    LongitudeOfAscNode: 316.84933063753
    ArgumentOfPeriapsis: 177.79270383617
    MeanAnomaly: 285.06663490607
    TrueAnomaly: 255.57082036481
  - EpochJD: 2462615.4842263
    DateUTC: 2030-04-23 23:37:17
    SemiMajorAxis: 1.3252257285742
    Eccentricity: 0.25579952996674
    Inclination: 1.0742690305859
    LongitudeOfAscNode: 316.84556632766
    ArgumentOfPeriapsis: 177.8003407568
    MeanAnomaly: 2.8043673100071
    TrueAnomaly: 4.8926607986421
  - EpochJD: 2462735.8274833
    DateUTC: 2030-08-22 07:51:34
    SemiMajorAxis: 1.3252945241939
    Eccentricity: 0.2558478779203
    Inclination: 1.0742444809289
    LongitudeOfAscNode: 316.83952035633
    ArgumentOfPeriapsis: 177.81068627108
    MeanAnomaly: 80.54178280077
    TrueAnomaly: 109.73832746261
  - EpochJD: 2462856.1707404
    DateUTC: 2030-12-20 16:05:51
    SemiMajorAxis: 1.3252253670973
    Eccentricity: 0.25593525814539
    Inclination: 1.0743742381246
    LongitudeOfAscNode: 316.83293132753
    ArgumentOfPeriapsis: 177.81101827268
    MeanAnomaly: 158.28736857596
    TrueAnomaly: 166.6104922461
  - EpochJD: 2462976.5139975
    DateUTC: 2031-04-20 00:20:09
    SemiMajorAxis: 1.3251809657103
    Eccentricity: 0.25597832312866
    Inclination: 1.074428178551
    LongitudeOfAscNode: 316.83251388851
    ArgumentOfPeriapsis: 177.80900961243
    MeanAnomaly: 236.04259311027
    TrueAnomaly: 215.83149285768
  - EpochJD: 2463096.8572545
    DateUTC: 2031-08-18 08:34:26
    SemiMajorAxis: 1.3252494218262
    Eccentricity: 0.25594990018142
    Inclination: 1.0743969071962
    LongitudeOfAscNode: 316.82988075175
    ArgumentOfPeriapsis: 177.7993556317
    MeanAnomaly: 313.8019485335
    TrueAnomaly: 287.66075867663
  - EpochJD: 2463217.2005116
    DateUTC: 2031-12-16 16:48:44
    SemiMajorAxis: 1.3252364029536
    Eccentricity: 0.25593142219049
    Inclination: 1.0743995787316
    LongitudeOfAscNode: 316.82948382993
    ArgumentOfPeriapsis: 177.79348632426
    MeanAnomaly: 31.552060542601
    TrueAnomaly: 52.072230130984
  - EpochJD: 2463337.5437687
    DateUTC: 2032-04-15 01:03:01
    SemiMajorAxis: 1.3253172469547
    Eccentricity: 0.25591510718339
    Inclination: 1.0744004840344
    LongitudeOfAscNode: 316.82581939523
    ArgumentOfPeriapsis: 177.81328270406
    MeanAnomaly: 109.28154293089
    TrueAnomaly: 133.5750819264
  - EpochJD: 2463457.8870258
    DateUTC: 2032-08-13 09:17:19
